NORAD_CAT_ID,OBJECT_NAME,OBJECT_TYPE,EPOCH,MEAN_MOTION,ECCENTRICITY,INCLINATION,RA_OF_ASC_NODE,ARG_OF_PERICENTER,MEAN_ANOMALY,BSTAR,MEAN_MOTION_DOT,MEAN_MOTION_DDOT,TLE_LINE0,TLE_LINE1,TLE_LINE2,SEMIMAJOR_AXIS,PERIOD,APOGEE,PERIGEE,DECAYED
55439.0,STARLINK-5634,PAYLOAD,2023-12-31 03:36:47,14.98327056,0.0002711,70.0009,320.4544,258.1777,101.9078,7.1126e-05,7.56e-06,0.0,0 STARLINK-5634,1 55439U 23014BA  23365.15055126  .00000756  00000-0  71126-4 0  9999,2 55439  70.0009 320.4544 0002711 258.1777 101.9078 14.98327056 50369,6950.202,96.107,573.951,570.183,0.0
55439.0,STARLINK-5634,PAYLOAD,2023-12-31 21:14:16,14.98332022,0.0002851,70.0005,318.6026,263.3555,96.728,2.2179e-05,1.72e-06,0.0,0 STARLINK-5634,1 55439U 23014BA  23365.88490976  .00000172  00000-0  22179-4 0  9991,2 55439  70.0005 318.6026 0002851 263.3555  96.7280 14.98332022 51418,6950.187,96.107,574.033,570.07,0.0
55439.0,STARLINK-5634,PAYLOAD,2024-01-01 03:38:48,14.98330824,0.0002883,70.0004,317.9294,263.6078,96.4753,2.395e-06,-6.4e-07,0.0,0 STARLINK-5634,1 55439U 23014BA  24001.15195070 -.00000064  00000-0  23950-5 0  9996,2 55439  70.0004 317.9294 0002883 263.6078  96.4753 14.98330824 50514,6950.19,96.107,574.059,570.052,0.0
55439.0,STARLINK-5634,PAYLOAD,2024-01-01 06:51:04,14.98333058,0.0002923,70.0003,317.5924,267.1593,92.9231,2.8284e-05,2.45e-06,0.0,0 STARLINK-5634,1 55439U 23014BA  24001.28546885  .00000245  00000-0  28284-4 0  9998,2 55439  70.0003 317.5924 0002923 267.1593  92.9231 14.98333058 51475,6950.183,96.107,574.08,570.017,0.0
55439.0,STARLINK-5634,PAYLOAD,2024-01-01 22:52:25,14.98332812,0.0002978,70.0002,315.9085,267.502,92.5798,6.3621e-05,6.66e-06,0.0,0 STARLINK-5634,1 55439U 23014BA  24001.95306715  .00000666  00000-0  63621-4 0  9999,2 55439  70.0002 315.9085 0002978 267.5020  92.5798 14.98332812 51575,6950.184,96.107,574.119,569.979,0.0
55439.0,STARLINK-5634,PAYLOAD,2024-01-02 03:40:49,14.98333338,0.0003046,70.0002,315.4033,269.5599,90.5211,7.8996e-05,8.5e-06,0.0,0 STARLINK-5634,1 55439U 23014BA  24002.15334671  .00000850  00000-0  78996-4 0  9990,2 55439  70.0002 315.4033 0003046 269.5599  90.5211 14.98333338 50664,6950.183,96.107,574.165,569.931,0.0
55439.0,STARLINK-5634,PAYLOAD,2024-01-02 06:53:04,14.98338018,0.0002932,70.0003,315.0671,269.1604,90.9219,0.00014517,1.64e-05,0.0,0 STARLINK-5634,1 55439U 23014BA  24002.28686186  .00001640  00000-0  14517-3 0  9991,2 55439  70.0003 315.0671 0002932 269.1604  90.9219 14.98338018 51624,6950.168,96.106,574.071,569.995,0.0
55439.0,STARLINK-5634,PAYLOAD,2024-01-02 21:18:17,14.98354958,0.0002282,70.0017,313.5538,246.1889,113.9031,-0.00038472,-4.683e-05,0.0,0 STARLINK-5634,1 55439U 23014BA  24002.88770568 -.00004683  00000-0 -38472-3 0  9993,2 55439  70.0017 313.5538 0002282 246.1889 113.9031 14.98354958 51711,6950.116,96.105,573.567,570.395,0.0
55439.0,STARLINK-5634,PAYLOAD,2024-01-03 03:42:50,14.98335923,0.0002243,70.0013,312.8807,241.0021,119.0913,-0.00012034,-1.529e-05,0.0,0 STARLINK-5634,1 55439U 23014BA  24003.15474808 -.00001529  00000-0 -12034-3 0  9994,2 55439  70.0013 312.8807 0002243 241.0021 119.0913 14.98335923 50814,6950.175,96.107,573.598,570.481,0.0
55439.0,STARLINK-5634,PAYLOAD,2024-01-03 06:55:06,14.98326024,0.0002527,70.0012,312.5436,257.7192,102.3684,2.006e-05,1.46e-06,0.0,0 STARLINK-5634,1 55439U 23014BA  24003.28827163  .00000146  00000-0  20060-4 0  9995,2 55439  70.0012 312.5436 0002527 257.7192 102.3684 14.98326024 50830,6950.205,96.107,573.827,570.314,0.0
55439.0,STARLINK-5634,PAYLOAD,2024-01-03 22:56:26,14.98332088,0.0002797,70.0004,310.8599,264.0392,96.0448,9.0621e-07,-8.2e-07,0.0,0 STARLINK-5634,1 55439U 23014BA  24003.95586764 -.00000082  00000-0  90621-6 0  9990,2 55439  70.0004 310.8599 0002797 264.0392  96.0448 14.98332088 51873,6950.186,96.107,573.995,570.107,0.0
55439.0,STARLINK-5634,PAYLOAD,2024-01-04 03:44:50,14.98336206,0.0002623,70.0003,310.3548,255.8523,104.2345,4.0302e-05,3.88e-06,0.0,0 STARLINK-5634,1 55439U 23014BA  24004.15614335  .00000388  00000-0  40302-4 0  9996,2 55439  70.0003 310.3548 0002623 255.8523 104.2345 14.98336206 50966,6950.174,96.107,573.862,570.216,0.0
55439.0,STARLINK-5634,PAYLOAD,2024-01-04 05:20:58,14.98337925,0.000263,70.0011,310.1886,242.5999,117.4893,4.6687e-05,4.64e-06,0.0,0 STARLINK-5634,1 55439U 23014BA  24004.22290176  .00000464  00000-0  46687-4 0  9994,2 55439  70.0011 310.1886 0002630 242.5999 117.4893 14.98337925 51915,6950.168,96.106,573.861,570.205,0.0
55439.0,STARLINK-5634,PAYLOAD,2024-01-04 21:22:19,14.98327684,0.0002035,70.0018,308.5033,244.0001,116.0949,6.6619e-05,7.02e-06,0.0,0 STARLINK-5634,1 55439U 23014BA  24004.89050684  .00000702  00000-0  66619-4 0  9997,2 55439  70.0018 308.5033 0002035 244.0001 116.0949 14.98327684 52017,6950.2,96.107,573.479,570.651,0.0
55439.0,STARLINK-5634,PAYLOAD,2024-01-05 03:46:52,14.98324732,0.0002404,70.0008,307.8301,257.7731,102.3159,-1.0625e-05,-2.2e-06,0.0,0 STARLINK-5634,1 55439U 23014BA  24005.15755113 -.00000220  00000-0 -10625-4 0  9999,2 55439  70.0008 307.8301 0002404 257.7731 102.3159 14.98324732 51119,6950.209,96.107,573.745,570.403,0.0
55439.0,STARLINK-5634,PAYLOAD,2024-01-05 05:23:00,14.98325658,0.0002362,70.0008,307.662,255.5683,104.5214,-1.8269e-06,-1.15e-06,0.0,0 STARLINK-5634,1 55439U 23014BA  24005.22431056 -.00000115  00000-0 -18269-5 0  9990,2 55439  70.0008 307.6620 0002362 255.5683 104.5214 14.98325658 52065,6950.206,96.107,573.713,570.43,0.0
55439.0,STARLINK-5634,PAYLOAD,2024-01-05 21:24:20,14.98329887,0.0002816,69.9996,305.9771,271.6954,88.3882,-1.5225e-05,-2.75e-06,0.0,0 STARLINK-5634,1 55439U 23014BA  24005.89190930 -.00000275  00000-0 -15225-4 0  9991,2 55439  69.9996 305.9771 0002816 271.6954  88.3882 14.98329887 52169,6950.193,96.107,574.015,570.101,0.0
55439.0,STARLINK-5634,PAYLOAD,2024-01-06 03:48:52,14.98333014,0.0002515,70.0003,305.305,259.9961,100.0914,6.9892e-06,-1e-07,0.0,0 STARLINK-5634,1 55439U 23014BA  24006.15894619 -.00000010  00000-0  69892-5 0  9992,2 55439  70.0003 305.3050 0002515 259.9961 100.0914 14.98333014 51263,6950.184,96.107,573.797,570.301,0.0
55439.0,STARLINK-5634,PAYLOAD,2024-01-06 05:25:00,14.98334877,0.0002666,69.9998,305.1359,267.624,92.4614,2.783e-05,2.39e-06,0.0,0 STARLINK-5634,1 55439U 23014BA  24006.22570461  .00000239  00000-0  27830-4 0  9993,2 55439  69.9998 305.1359 0002666 267.6240  92.4614 14.98334877 52211,6950.178,96.107,573.896,570.19,0.0
55439.0,STARLINK-5634,PAYLOAD,2024-01-06 21:26:21,14.98325916,0.0002636,70.0001,303.4529,270.9879,89.0978,8.4764e-05,9.18e-06,0.0,0 STARLINK-5634,1 55439U 23014BA  24006.89330824  .00000918  00000-0  84764-4 0  9996,2 55439  70.0001 303.4529 0002636 270.9879  89.0978 14.98325916 52311,6950.206,96.107,573.903,570.238,0.0
55439.0,STARLINK-5634,PAYLOAD,2024-01-07 03:50:53,14.9832838,0.0002543,70.0002,302.7797,268.6831,91.4037,0.00010667,1.18e-05,0.0,0 STARLINK-5634,1 55439U 23014BA  24007.16034656  .00001180  00000-0  10667-3 0  9993,2 55439  70.0002 302.7797 0002543 268.6831  91.4037 14.98328380 51411,6950.198,96.107,573.83,570.295,0.0
55439.0,STARLINK-5634,PAYLOAD,2024-01-07 05:27:01,14.98355052,0.000268,70.0002,302.6117,268.4742,91.611,-0.00032403,-3.959e-05,0.0,0 STARLINK-5634,1 55439U 23014BA  24007.22709859 -.00003959  00000-0 -32403-3 0  9994,2 55439  70.0002 302.6117 0002680 268.4742  91.6110 14.98355052 51428,6950.115,96.105,573.843,570.118,0.0
55439.0,STARLINK-5634,PAYLOAD,2024-01-07 19:52:14,14.98323053,0.0002404,70.0006,301.0962,272.1741,87.9143,0.0001959,2.245e-05,0.0,0 STARLINK-5634,1 55439U 23014BA  24007.82794672  .00002245  00000-0  19590-3 0  9994,2 55439  70.0006 301.0962 0002404 272.1741  87.9143 14.98323053 51518,6950.214,96.107,573.75,570.409,0.0
55439.0,STARLINK-5634,PAYLOAD,2024-01-07 21:28:22,14.98331513,0.0002507,70.0002,300.9282,269.2184,90.8688,3.0965e-05,2.77e-06,0.0,0 STARLINK-5634,1 55439U 23014BA  24007.89470638  .00000277  00000-0  30965-4 0  9997,2 55439  70.0002 300.9282 0002507 269.2184  90.8688 14.98331513 52461,6950.188,96.107,573.796,570.311,0.0
55439.0,STARLINK-5634,PAYLOAD,2024-01-08 05:29:02,14.9833371,0.0002453,70.0003,300.0869,266.1317,93.9562,5.5482e-05,5.69e-06,0.0,0 STARLINK-5634,1 55439U 23014BA  24008.22850397  .00000569  00000-0  55482-4 0  9994,2 55439  70.0003 300.0869 0002453 266.1317  93.9562 14.98333710 52510,6950.181,96.107,573.751,570.342,0.0
55439.0,STARLINK-5634,PAYLOAD,2024-01-08 19:54:15,14.98331496,0.0002389,70.0005,298.5726,265.2447,94.8439,2.5816e-05,2.15e-06,0.0,0 STARLINK-5634,1 55439U 23014BA  24008.82934540  .00000215  00000-0  25816-4 0  9999,2 55439  70.0005 298.5726 0002389 265.2447  94.8439 14.98331496 51664,6950.188,96.107,573.714,570.393,0.0
55439.0,STARLINK-5634,PAYLOAD,2024-01-08 21:30:23,14.98331827,0.0002399,70.0005,298.404,264.4541,95.6344,2.959e-05,2.6e-06,0.0,0 STARLINK-5634,1 55439U 23014BA  24008.89610494  .00000260  00000-0  29590-4 0  9998,2 55439  70.0005 298.4040 0002399 264.4541  95.6344 14.98331827 52617,6950.187,96.107,573.72,570.385,0.0
55439.0,STARLINK-5634,PAYLOAD,2024-01-09 03:54:55,14.983609,0.0002298,70.0006,297.7306,262.0574,98.0325,-0.00046902,-5.689e-05,0.0,0 STARLINK-5634,1 55439U 23014BA  24009.16313748 -.00005689  00000-0 -46902-3 0  9998,2 55439  70.0006 297.7306 0002298 262.0574  98.0325 14.98360900 51713,6950.097,96.105,573.559,570.365,0.0
55439.0,STARLINK-5634,PAYLOAD,2024-01-09 05:31:03,14.98333738,0.0002408,70.0005,297.562,265.1758,94.9126,4.9905e-05,5.03e-06,0.0,0 STARLINK-5634,1 55439U 23014BA  24009.22990284  .00000503  00000-0  49905-4 0  9996,2 55439  70.0005 297.5620 0002408 265.1758  94.9126 14.98333738 51724,6950.181,96.107,573.72,570.373,0.0
55439.0,STARLINK-5634,PAYLOAD,2024-01-09 21:32:24,14.98331913,0.0002364,70.0005,295.8785,262.1881,97.901,3.0718e-05,2.74e-06,0.0,0 STARLINK-5634,1 55439U 23014BA  24009.89750317  .00000274  00000-0  30718-4 0  9997,2 55439  70.0005 295.8785 0002364 262.1881  97.9010 14.98331913 52765,6950.187,96.107,573.695,570.409,0.0
